{"fetched_at":"2026-07-19T07:04:50.778Z","source":"https://celestrak.org/NORAD/elements/gp.php?GROUP=planet&FORMAT=JSON","constellation":"superdove","records":[{"OBJECT_NAME":"FLOCK 4BE-3","OBJECT_ID":"2024-149CX","EPOCH":"2026-07-18T17:58:13.678752","CLASSIFICATION_TYPE":"U","MEAN_MOTION":15.4246789,"ECCENTRICITY":0.0005261,"INCLINATION":97.3687,"RA_OF_ASC_NODE":283.9827,"ARG_OF_PERICENTER":158.6778,"MEAN_ANOMALY":201.4689,"EPHEMERIS_TYPE":0,"NORAD_CAT_ID":60561,"ELEMENT_SET_NO":999,"REV_AT_EPOCH":10720,"BSTAR":0.0002281,"MEAN_MOTION_DOT":0.00009793,"MEAN_MOTION_DDOT":0},{"OBJECT_NAME":"FLOCK 4BE-19","OBJECT_ID":"2024-149CZ","EPOCH":"2026-07-18T19:05:28.723776","CLASSIFICATION_TYPE":"U","MEAN_MOTION":15.45761592,"ECCENTRICITY":0.0006123,"INCLINATION":97.3734,"RA_OF_ASC_NODE":285.7335,"ARG_OF_PERICENTER":164.03,"MEAN_ANOMALY":196.1144,"EPHEMERIS_TYPE":0,"NORAD_CAT_ID":60563,"ELEMENT_SET_NO":999,"REV_AT_EPOCH":10730,"BSTAR":0.00032115,"MEAN_MOTION_DOT":0.00015469,"MEAN_MOTION_DDOT":0},{"OBJECT_NAME":"FLOCK 4G-8","OBJECT_ID":"2025-009E","EPOCH":"2026-07-18T19:18:08.440704","CLASSIFICATION_TYPE":"U","MEAN_MOTION":15.30283048,"ECCENTRICITY":0.0004353,"INCLINATION":97.3998,"RA_OF_ASC_NODE":281.6869,"ARG_OF_PERICENTER":179.9112,"MEAN_ANOMALY":180.213,"EPHEMERIS_TYPE":0,"NORAD_CAT_ID":62613,"ELEMENT_SET_NO":999,"REV_AT_EPOCH":8375,"BSTAR":0.00018459,"MEAN_MOTION_DOT":0.00005331,"MEAN_MOTION_DDOT":0},{"OBJECT_NAME":"FLOCK 4G-13","OBJECT_ID":"2025-009N","EPOCH":"2026-07-18T18:43:30.825696","CLASSIFICATION_TYPE":"U","MEAN_MOTION":15.49283674,"ECCENTRICITY":0.0006736,"INCLINATION":97.394,"RA_OF_ASC_NODE":283.7213,"ARG_OF_PERICENTER":189.0829,"MEAN_ANOMALY":171.0301,"EPHEMERIS_TYPE":0,"NORAD_CAT_ID":62621,"ELEMENT_SET_NO":999,"REV_AT_EPOCH":8388,"BSTAR":0.00098364,"MEAN_MOTION_DOT":0.00053995,"MEAN_MOTION_DDOT":0},{"OBJECT_NAME":"FLOCK 4G-9","OBJECT_ID":"2025-009P","EPOCH":"2026-07-18T18:22:29.435808","CLASSIFICATION_TYPE":"U","MEAN_MOTION":15.28543862,"ECCENTRICITY":0.0004435,"INCLINATION":97.3951,"RA_OF_ASC_NODE":280.4917,"ARG_OF_PERICENTER":191.4528,"MEAN_ANOMALY":168.6612,"EPHEMERIS_TYPE":0,"NORAD_CAT_ID":62622,"ELEMENT_SET_NO":999,"REV_AT_EPOCH":8368,"BSTAR":0.00016841,"MEAN_MOTION_DOT":0.00004602,"MEAN_MOTION_DDOT":0},{"OBJECT_NAME":"FLOCK 4G-7","OBJECT_ID":"2025-009R","EPOCH":"2026-07-18T17:22:18.984576","CLASSIFICATION_TYPE":"U","MEAN_MOTION":15.29914154,"ECCENTRICITY":0.0002949,"INCLINATION":97.3934,"RA_OF_ASC_NODE":280.8733,"ARG_OF_PERICENTER":171.3451,"MEAN_ANOMALY":188.7841,"EPHEMERIS_TYPE":0,"NORAD_CAT_ID":62624,"ELEMENT_SET_NO":999,"REV_AT_EPOCH":8372,"BSTAR":0.00017757,"MEAN_MOTION_DOT":0.00005067,"MEAN_MOTION_DDOT":0},{"OBJECT_NAME":"FLOCK 4G-12","OBJECT_ID":"2025-009S","EPOCH":"2026-07-18T18:50:00.926880","CLASSIFICATION_TYPE":"U","MEAN_MOTION":15.29817053,"ECCENTRICITY":0.0004551,"INCLINATION":97.4013,"RA_OF_ASC_NODE":281.4868,"ARG_OF_PERICENTER":176.7299,"MEAN_ANOMALY":183.3972,"EPHEMERIS_TYPE":0,"NORAD_CAT_ID":62625,"ELEMENT_SET_NO":999,"REV_AT_EPOCH":8373,"BSTAR":0.00021454,"MEAN_MOTION_DOT":0.0000612,"MEAN_MOTION_DDOT":0},{"OBJECT_NAME":"FLOCK 4G-11","OBJECT_ID":"2025-009W","EPOCH":"2026-07-18T18:27:50.974272","CLASSIFICATION_TYPE":"U","MEAN_MOTION":15.29924409,"ECCENTRICITY":0.0003042,"INCLINATION":97.3915,"RA_OF_ASC_NODE":281.0255,"ARG_OF_PERICENTER":173.5078,"MEAN_ANOMALY":186.6203,"EPHEMERIS_TYPE":0,"NORAD_CAT_ID":62629,"ELEMENT_SET_NO":999,"REV_AT_EPOCH":8374,"BSTAR":0.00020009,"MEAN_MOTION_DOT":0.00005721,"MEAN_MOTION_DDOT":0},{"OBJECT_NAME":"FLOCK 4G-26","OBJECT_ID":"2025-009AA","EPOCH":"2026-07-18T18:46:45.196320","CLASSIFICATION_TYPE":"U","MEAN_MOTION":15.30120202,"ECCENTRICITY":0.0003996,"INCLINATION":97.4009,"RA_OF_ASC_NODE":281.6469,"ARG_OF_PERICENTER":166.8443,"MEAN_ANOMALY":193.2902,"EPHEMERIS_TYPE":0,"NORAD_CAT_ID":62633,"ELEMENT_SET_NO":999,"REV_AT_EPOCH":8374,"BSTAR":0.00023113,"MEAN_MOTION_DOT":0.00006661,"MEAN_MOTION_DDOT":0},{"OBJECT_NAME":"FLOCK 4G-28","OBJECT_ID":"2025-009AB","EPOCH":"2026-07-18T19:13:41.797344","CLASSIFICATION_TYPE":"U","MEAN_MOTION":15.35316625,"ECCENTRICITY":0.0002448,"INCLINATION":97.4021,"RA_OF_ASC_NODE":284.4794,"ARG_OF_PERICENTER":154.3646,"MEAN_ANOMALY":205.7719,"EPHEMERIS_TYPE":0,"NORAD_CAT_ID":62634,"ELEMENT_SET_NO":999,"REV_AT_EPOCH":8393,"BSTAR":0.00014129,"MEAN_MOTION_DOT":0.00004764,"MEAN_MOTION_DDOT":0},{"OBJECT_NAME":"FLOCK 4G-24","OBJECT_ID":"2025-009AE","EPOCH":"2026-07-18T12:45:22.578048","CLASSIFICATION_TYPE":"U","MEAN_MOTION":15.30405179,"ECCENTRICITY":0.00040001,"INCLINATION":97.4016,"RA_OF_ASC_NODE":281.7034,"ARG_OF_PERICENTER":156.3545,"MEAN_ANOMALY":203.7881,"EPHEMERIS_TYPE":0,"NORAD_CAT_ID":62637,"ELEMENT_SET_NO":999,"REV_AT_EPOCH":8372,"BSTAR":0.00018469696,"MEAN_MOTION_DOT":0.00005355,"MEAN_MOTION_DDOT":0},{"OBJECT_NAME":"FLOCK 4G-3","OBJECT_ID":"2025-009AG","EPOCH":"2026-07-18T18:53:50.623872","CLASSIFICATION_TYPE":"U","MEAN_MOTION":15.2991591,"ECCENTRICITY":0.0003592,"INCLINATION":97.4016,"RA_OF_ASC_NODE":281.664,"ARG_OF_PERICENTER":160.1746,"MEAN_ANOMALY":199.9634,"EPHEMERIS_TYPE":0,"NORAD_CAT_ID":62639,"ELEMENT_SET_NO":999,"REV_AT_EPOCH":8373,"BSTAR":0.00019129,"MEAN_MOTION_DOT":0.00005464,"MEAN_MOTION_DDOT":0},{"OBJECT_NAME":"FLOCK 4G-27","OBJECT_ID":"2025-009AJ","EPOCH":"2026-07-18T19:22:15.619872","CLASSIFICATION_TYPE":"U","MEAN_MOTION":15.29848099,"ECCENTRICITY":0.0002889,"INCLINATION":97.3926,"RA_OF_ASC_NODE":281.0272,"ARG_OF_PERICENTER":160.8949,"MEAN_ANOMALY":199.24,"EPHEMERIS_TYPE":0,"NORAD_CAT_ID":62641,"ELEMENT_SET_NO":999,"REV_AT_EPOCH":8373,"BSTAR":0.00018295,"MEAN_MOTION_DOT":0.00005212,"MEAN_MOTION_DDOT":0},{"OBJECT_NAME":"FLOCK 4G-29","OBJECT_ID":"2025-009AK","EPOCH":"2026-07-18T19:00:59.304384","CLASSIFICATION_TYPE":"U","MEAN_MOTION":15.29894758,"ECCENTRICITY":0.0003746,"INCLINATION":97.4013,"RA_OF_ASC_NODE":281.6285,"ARG_OF_PERICENTER":156.8064,"MEAN_ANOMALY":203.3347,"EPHEMERIS_TYPE":0,"NORAD_CAT_ID":62642,"ELEMENT_SET_NO":999,"REV_AT_EPOCH":8373,"BSTAR":0.00014959,"MEAN_MOTION_DOT":0.00004254,"MEAN_MOTION_DDOT":0},{"OBJECT_NAME":"FLOCK 4G-22","OBJECT_ID":"2025-009AN","EPOCH":"2026-07-18T19:27:51.560352","CLASSIFICATION_TYPE":"U","MEAN_MOTION":15.29811922,"ECCENTRICITY":0.0003269,"INCLINATION":97.3998,"RA_OF_ASC_NODE":281.6804,"ARG_OF_PERICENTER":153.3315,"MEAN_ANOMALY":206.8095,"EPHEMERIS_TYPE":0,"NORAD_CAT_ID":62645,"ELEMENT_SET_NO":999,"REV_AT_EPOCH":8375,"BSTAR":0.00017805,"MEAN_MOTION_DOT":0.00005064,"MEAN_MOTION_DDOT":0},{"OBJECT_NAME":"FLOCK 4G-25","OBJECT_ID":"2025-009AP","EPOCH":"2026-07-18T18:49:14.613888","CLASSIFICATION_TYPE":"U","MEAN_MOTION":15.3005048,"ECCENTRICITY":0.0002752,"INCLINATION":97.4009,"RA_OF_ASC_NODE":281.7339,"ARG_OF_PERICENTER":156.563,"MEAN_ANOMALY":203.5736,"EPHEMERIS_TYPE":0,"NORAD_CAT_ID":62646,"ELEMENT_SET_NO":999,"REV_AT_EPOCH":8375,"BSTAR":0.00019023,"MEAN_MOTION_DOT":0.00005456,"MEAN_MOTION_DDOT":0}]}
