FLOCK 4BE-3             
1 60561U 24149CX  26199.74876943  .00009793  00000+0  22810-3 0  9996
2 60561  97.3687 283.9827 0005261 158.6778 201.4689 15.42467890107201
FLOCK 4BE-19            
1 60563U 24149CZ  26199.79547134  .00015469  00000+0  32115-3 0  9996
2 60563  97.3734 285.7335 0006123 164.0300 196.1144 15.45761592107306
FLOCK 4G-8              
1 62613U 25009E   26199.80426436  .00005331  00000+0  18459-3 0  9995
2 62613  97.3998 281.6869 0004353 179.9112 180.2130 15.30283048 83752
FLOCK 4G-13             
1 62621U 25009N   26199.78021789  .00053995  00000+0  98364-3 0  9995
2 62621  97.3940 283.7213 0006736 189.0829 171.0301 15.49283674 83885
FLOCK 4G-9              
1 62622U 25009P   26199.76561847  .00004602  00000+0  16841-3 0  9999
2 62622  97.3951 280.4917 0004435 191.4528 168.6612 15.28543862 83680
FLOCK 4G-7              
1 62624U 25009R   26199.72383084  .00005067  00000+0  17757-3 0  9995
2 62624  97.3934 280.8733 0002949 171.3451 188.7841 15.29914154 83722
FLOCK 4G-12             
1 62625U 25009S   26199.78473295  .00006120  00000+0  21454-3 0  9996
2 62625  97.4013 281.4868 0004551 176.7299 183.3972 15.29817053 83735
FLOCK 4G-11             
1 62629U 25009W   26199.76933998  .00005721  00000+0  20009-3 0  9990
2 62629  97.3915 281.0255 0003042 173.5078 186.6203 15.29924409 83747
FLOCK 4G-26             
1 62633U 25009AA  26199.78246755  .00006661  00000+0  23113-3 0  9998
2 62633  97.4009 281.6469 0003996 166.8443 193.2902 15.30120202 83740
FLOCK 4G-28             
1 62634U 25009AB  26199.80117821  .00004764  00000+0  14129-3 0  9992
2 62634  97.4021 284.4794 0002448 154.3646 205.7719 15.35316625 83932
FLOCK 4G-24             
1 62637U 25009AE  26199.53151132  .00005355  00000+0  18470-3 0  9998
2 62637  97.4016 281.7034 0004000 156.3545 203.7881 15.30405179 83725
FLOCK 4G-3              
1 62639U 25009AG  26199.78739148  .00005464  00000+0  19129-3 0  9999
2 62639  97.4016 281.6640 0003592 160.1746 199.9634 15.29915910 83730
FLOCK 4G-27             
1 62641U 25009AJ  26199.80712523  .00005212  00000+0  18295-3 0  9997
2 62641  97.3926 281.0272 0002889 160.8949 199.2400 15.29848099 83734
FLOCK 4G-29             
1 62642U 25009AK  26199.79235306  .00004254  00000+0  14959-3 0  9993
2 62642  97.4013 281.6285 0003746 156.8064 203.3347 15.29894758 83739
FLOCK 4G-22             
1 62645U 25009AN  26199.81101343  .00005064  00000+0  17805-3 0  9995
2 62645  97.3998 281.6804 0003269 153.3315 206.8095 15.29811922 83753
FLOCK 4G-25             
1 62646U 25009AP  26199.78419692  .00005456  00000+0  19023-3 0  9990
2 62646  97.4009 281.7339 0002752 156.5630 203.5736 15.30050480 83755
